NORAD_CAT_ID,OBJECT_NAME,OBJECT_TYPE,EPOCH,MEAN_MOTION,ECCENTRICITY,INCLINATION,RA_OF_ASC_NODE,ARG_OF_PERICENTER,MEAN_ANOMALY,BSTAR,MEAN_MOTION_DOT,MEAN_MOTION_DDOT,TLE_LINE0,TLE_LINE1,TLE_LINE2,SEMIMAJOR_AXIS,PERIOD,APOGEE,PERIGEE,DECAYED
50167.0,STARLINK-3271,PAYLOAD,2023-06-05 13:50:28,15.08836573,0.0001224,53.2166,104.7269,86.7939,273.3193,4.1751e-05,3.77e-06,0.0,0 STARLINK-3271,1 50167U 21125M   23156.57671714  .00000377  00000-0  41751-4 0  9994,2 50167  53.2166 104.7269 0001224  86.7939 273.3193 15.08836573 84268,6917.891,95.438,540.603,538.909,0.0
50167.0,STARLINK-3271,PAYLOAD,2023-06-05 20:12:01,15.08832646,0.0001332,53.2162,103.5373,92.5907,267.5238,5.8651e-05,6.45e-06,0.0,0 STARLINK-3271,1 50167U 21125M   23156.84167884  .00000645  00000-0  58651-4 0  9997,2 50167  53.2162 103.5373 0001332  92.5907 267.5238 15.08832646 84304,6917.903,95.438,540.689,538.846,0.0
50167.0,STARLINK-3271,PAYLOAD,2023-06-06 02:33:33,15.08837126,0.0001203,53.217,102.3477,95.1879,264.9251,4.3694e-05,4.08e-06,0.0,0 STARLINK-3271,1 50167U 21125M   23157.10663689  .00000408  00000-0  43694-4 0  9999,2 50167  53.2170 102.3477 0001203  95.1879 264.9251 15.08837126 83863,6917.889,95.438,540.586,538.922,0.0
50167.0,STARLINK-3271,PAYLOAD,2023-06-06 05:44:19,15.08839991,0.0001238,53.2172,101.7526,90.7432,269.3702,7.427e-05,8.94e-06,0.0,0 STARLINK-3271,1 50167U 21125M   23157.23911435  .00000894  00000-0  74270-4 0  9991,2 50167  53.2172 101.7526 0001238  90.7432 269.3702 15.08839991 84365,6917.88,95.438,540.602,538.889,0.0
50167.0,STARLINK-3271,PAYLOAD,2023-06-06 15:16:38,15.08840819,0.0001247,53.2166,99.9691,85.4616,274.6519,3.2233e-05,2.25e-06,0.0,0 STARLINK-3271,1 50167U 21125M   23157.63655527  .00000225  00000-0  32233-4 0  9993,2 50167  53.2166  99.9691 0001247  85.4616 274.6519 15.08840819 84427,6917.878,95.438,540.606,538.88,0.0
50167.0,STARLINK-3271,PAYLOAD,2023-06-07 05:35:05,15.08852315,0.0001141,53.2172,97.2932,96.6971,263.4151,8.7331e-05,1.103e-05,0.0,0 STARLINK-3271,1 50167U 21125M   23158.23270551  .00001103  00000-0  87331-4 0  9995,2 50167  53.2172  97.2932 0001141  96.6971 263.4151 15.08852315 84033,6917.843,95.437,540.497,538.918,0.0
50167.0,STARLINK-3271,PAYLOAD,2023-06-07 15:07:25,15.08837035,0.0001392,53.2169,95.5089,100.4273,259.6876,3.1196e-05,2.09e-06,0.0,0 STARLINK-3271,1 50167U 21125M   23158.63015662  .00000209  00000-0  31196-4 0  9993,2 50167  53.2169  95.5089 0001392 100.4273 259.6876 15.08837035 84099,6917.889,95.438,540.717,538.791,0.0
50167.0,STARLINK-3271,PAYLOAD,2023-06-08 05:25:53,15.08838006,0.0001161,53.2171,92.8324,84.8965,275.216,4.7785e-05,4.73e-06,0.0,0 STARLINK-3271,1 50167U 21125M   23159.22631843  .00000473  00000-0  47785-4 0  9998,2 50167  53.2171  92.8324 0001161  84.8965 275.2160 15.08838006 84663,6917.886,95.438,540.555,538.948,0.0
50167.0,STARLINK-3271,PAYLOAD,2023-06-08 22:55:07,15.08843893,0.0001135,53.2172,89.5615,85.9709,274.1413,6.6618e-05,7.73e-06,0.0,0 STARLINK-3271,1 50167U 21125M   23159.95495363  .00000773  00000-0  66618-4 0  9992,2 50167  53.2172  89.5615 0001135  85.9709 274.1413 15.08843893 84297,6917.868,95.437,540.519,538.948,0.0
50167.0,STARLINK-3271,PAYLOAD,2023-06-09 02:05:53,15.08847711,0.0001129,53.2172,88.9664,91.6216,268.4906,9.4369e-05,1.215e-05,0.0,0 STARLINK-3271,1 50167U 21125M   23160.08743010  .00001215  00000-0  94369-4 0  9999,2 50167  53.2172  88.9664 0001129  91.6216 268.4906 15.08847711 84795,6917.857,95.437,540.503,538.941,0.0
50167.0,STARLINK-3271,PAYLOAD,2023-06-10 01:56:42,15.08832248,0.0001265,53.2178,84.5068,92.09,268.0237,5.8232e-05,6.39e-06,0.0,0 STARLINK-3271,1 50167U 21125M   23161.08104208  .00000639  00000-0  58232-4 0  9998,2 50167  53.2178  84.5068 0001265  92.0900 268.0237 15.08832248 84463,6917.904,95.438,540.644,538.894,0.0
50167.0,STARLINK-3271,PAYLOAD,2023-06-10 11:29:00,15.08837548,0.0001175,53.2175,82.7233,88.8186,271.2941,2.0173e-05,3.3e-07,0.0,0 STARLINK-3271,1 50167U 21125M   23161.47848216  .00000033  00000-0  20173-4 0  9996,2 50167  53.2175  82.7233 0001175  88.8186 271.2941 15.08837548 85000,6917.888,95.438,540.566,538.94,0.0
50167.0,STARLINK-3271,PAYLOAD,2023-06-11 11:19:47,15.08843874,0.000107,53.2173,78.262,94.8089,265.3025,1.7808e-07,-2.85e-06,0.0,0 STARLINK-3271,1 50167U 21125M   23162.47207882 -.00000285  00000-0  17808-6 0  9998,2 50167  53.2173  78.2620 0001070  94.8089 265.3025 15.08843874 84679,6917.869,95.437,540.474,538.993,0.0
50167.0,STARLINK-3271,PAYLOAD,2023-06-11 20:52:07,15.08832096,0.0001222,53.2179,76.4787,90.8593,269.254,0.00012686,1.731e-05,0.0,0 STARLINK-3271,1 50167U 21125M   23162.86952609  .00001731  00000-0  12686-3 0  9997,2 50167  53.2179  76.4787 0001222  90.8593 269.2540 15.08832096 85214,6917.905,95.438,540.615,538.924,0.0
50167.0,STARLINK-3271,PAYLOAD,2023-06-12 11:10:35,15.08835414,0.0001472,53.2181,73.8042,91.0868,269.0293,5.3049e-05,5.56e-06,0.0,0 STARLINK-3271,1 50167U 21125M   23163.46568833  .00000556  00000-0  53049-4 0  9999,2 50167  53.2181  73.8042 0001472  91.0868 269.0293 15.08835414 85307,6917.894,95.438,540.778,538.741,0.0
50167.0,STARLINK-3271,PAYLOAD,2023-06-12 23:53:40,15.08838515,0.0001409,53.2184,71.4233,85.6651,274.4502,2.1943e-05,6.1e-07,0.0,0 STARLINK-3271,1 50167U 21125M   23163.99560862  .00000061  00000-0  21943-4 0  9990,2 50167  53.2184  71.4233 0001409  85.6651 274.4502 15.08838515 85381,6917.885,95.438,540.725,538.775,0.0
50167.0,STARLINK-3271,PAYLOAD,2023-06-13 01:29:03,15.08840393,0.0001337,53.2184,71.1261,83.6446,276.4698,3.9351e-05,3.38e-06,0.0,0 STARLINK-3271,1 50167U 21125M   23164.06184685  .00000338  00000-0  39351-4 0  9993,2 50167  53.2184  71.1261 0001337  83.6446 276.4698 15.08840393 85395,6917.879,95.438,540.669,538.819,0.0
50167.0,STARLINK-3271,PAYLOAD,2023-06-13 23:44:27,15.08839994,0.0001328,53.2182,66.9639,82.1327,277.9816,7.8631e-05,9.64e-06,0.0,0 STARLINK-3271,1 50167U 21125M   23164.98920625  .00000964  00000-0  78631-4 0  9995,2 50167  53.2182  66.9639 0001328  82.1327 277.9816 15.08839994 85052,6917.88,95.438,540.664,538.827,0.0
50167.0,STARLINK-3271,PAYLOAD,2023-06-14 02:55:13,15.0884446,0.0001311,53.2181,66.3674,88.926,271.1882,4.9397e-05,4.98e-06,0.0,0 STARLINK-3271,1 50167U 21125M   23165.12168381  .00000498  00000-0  49397-4 0  9994,2 50167  53.2181  66.3674 0001311  88.9260 271.1882 15.08844460 85554,6917.867,95.437,540.639,538.825,0.0
50167.0,STARLINK-3271,PAYLOAD,2023-06-15 02:46:00,15.08844868,0.0001337,53.2184,61.9068,89.269,270.8455,3.5913e-05,2.84e-06,0.0,0 STARLINK-3271,1 50167U 21125M   23166.11528346  .00000284  00000-0  35913-4 0  9997,2 50167  53.2184  61.9068 0001337  89.2690 270.8455 15.08844868 85222,6917.866,95.437,540.655,538.806,0.0
50167.0,STARLINK-3271,PAYLOAD,2023-06-16 02:36:47,15.08849844,0.0001272,53.2185,57.4452,92.8204,267.2934,5.9098e-05,6.53e-06,0.0,0 STARLINK-3271,1 50167U 21125M   23167.10887798  .00000653  00000-0  59098-4 0  9996,2 50167  53.2185  57.4452 0001272  92.8204 267.2934 15.08849844 85859,6917.85,95.437,540.595,538.835,0.0
50167.0,STARLINK-3271,PAYLOAD,2023-06-17 02:27:33,15.08853597,0.0001148,53.2171,52.9868,81.4493,278.6629,0.00014884,2.083e-05,0.0,0 STARLINK-3271,1 50167U 21125M   23168.10247028  .00002083  00000-0  14884-3 0  9995,2 50167  53.2171  52.9868 0001148  81.4493 278.6629 15.08853597 85522,6917.839,95.437,540.498,538.91,0.0
50167.0,STARLINK-3271,PAYLOAD,2023-06-17 08:49:07,15.08829716,0.0001582,53.2174,51.7941,87.9595,272.1578,-5.5094e-05,-1.164e-05,0.0,0 STARLINK-3271,1 50167U 21125M   23168.36745166 -.00001164  00000-0 -55094-4 0  9999,2 50167  53.2174  51.7941 0001582  87.9595 272.1578 15.08829716 85562,6917.912,95.438,540.871,538.682,0.0
50167.0,STARLINK-3271,PAYLOAD,2023-06-18 08:39:55,15.08836195,0.0001098,53.2179,47.3388,101.909,258.2025,-8.5896e-05,-1.654e-05,0.0,0 STARLINK-3271,1 50167U 21125M   23169.36105499 -.00001654  00000-0 -85896-4 0  9996,2 50167  53.2179  47.3388 0001098 101.9090 258.2025 15.08836195 86193,6917.892,95.438,540.517,538.997,0.0
50167.0,STARLINK-3271,PAYLOAD,2023-06-18 22:58:22,15.08849375,0.0001081,53.2177,44.6627,99.9977,260.1138,4.728e-05,4.65e-06,0.0,0 STARLINK-3271,1 50167U 21125M   23169.95720555  .00000465  00000-0  47280-4 0  9999,2 50167  53.2177  44.6627 0001081  99.9977 260.1138 15.08849375 85807,6917.852,95.437,540.465,538.969,0.0
50167.0,STARLINK-3271,PAYLOAD,2023-06-19 08:30:41,15.08849062,0.0001069,53.2178,42.8785,99.6427,260.4686,6.8718e-05,8.06e-06,0.0,0 STARLINK-3271,1 50167U 21125M   23170.35464475  .00000806  00000-0  68718-4 0  9999,2 50167  53.2178  42.8785 0001069  99.6427 260.4686 15.08849062 86340,6917.853,95.437,540.457,538.978,0.0
50167.0,STARLINK-3271,PAYLOAD,2023-06-20 00:24:33,15.08836899,9.43e-05,53.2179,39.9032,92.0637,268.0463,0.0001897,2.732e-05,0.0,0 STARLINK-3271,1 50167U 21125M   23171.01705448  .00002732  00000-0  18970-3 0  9995,2 50167  53.2179  39.9032 0000943  92.0637 268.0463 15.08836899 85961,6917.89,95.438,540.407,539.103,0.0
50167.0,STARLINK-3271,PAYLOAD,2023-06-20 08:21:29,15.08836639,9.72e-05,53.2181,38.4171,98.9574,261.1529,0.00016475,2.335e-05,0.0,0 STARLINK-3271,1 50167U 21125M   23171.34825656  .00002335  00000-0  16475-3 0  9992,2 50167  53.2181  38.4171 0000972  98.9574 261.1529 15.08836639 86497,6917.891,95.438,540.428,539.083,0.0
50167.0,STARLINK-3271,PAYLOAD,2023-06-20 21:04:34,15.08846501,9.21e-05,53.2172,36.0373,93.1725,266.9372,3.2272e-05,2.26e-06,0.0,0 STARLINK-3271,1 50167U 21125M   23171.87817231  .00000226  00000-0  32272-4 0  9991,2 50167  53.2172  36.0373 0000921  93.1725 266.9372 15.08846501 86571,6917.861,95.437,540.363,539.088,0.0
50167.0,STARLINK-3271,PAYLOAD,2023-06-21 00:15:19,15.08853895,9.22e-05,53.2177,35.4399,84.1779,275.9319,3.0074e-05,1.91e-06,0.0,0 STARLINK-3271,1 50167U 21125M   23172.01064704  .00000191  00000-0  30074-4 0  9996,2 50167  53.2177  35.4399 0000922  84.1779 275.9319 15.08853895 86112,6917.838,95.437,540.341,539.065,0.0
